*******************************************************************************
Ephemeris / WWW_USER Mon Mar 10 06:43:17 2025 Pasadena, USA      / Horizons    
*******************************************************************************
Target body name: (2018 TG6)                      {source: JPL#30}
Center body name: Earth (399)                     {source: DE441}
Center-site name: Mauna Kea
*******************************************************************************
Start time      : A.D. 2018-Dec-06 03:52:00.0000 UT      
Stop  time      : A.D. 2018-Dec-06 16:33:00.0000 UT      
Step-size       : 1 minutes
*******************************************************************************
Target pole/equ : undefined
Target radii    : undefined                                                    
Center geodetic : 204.5278, 19.8260847, 4.21024   {E-lon(deg),Lat(deg),Alt(km)}
Center cylindric: 204.5278, 6006.35451, 2151.0229 {E-lon(deg),Dxy(km),Dz(km)}
Center pole/equ : ITRF93                          {East-longitude positive}
Center radii    : 6378.137, 6378.137, 6356.752 km {Equator_a, b, pole_c}       
Target primary  : Sun
Vis. interferer : MOON (R_eq= 1737.400) km        {source: DE441}
Rel. light bend : Sun                             {source: DE441}
Rel. lght bnd GM: 1.3271E+11 km^3/s^2                                          
Small-body perts: Yes                             {source: SB441-N16}
Atmos refraction: NO (AIRLESS)
RA format       : HMS
Time format     : CAL 
Calendar mode   : Mixed Julian/Gregorian
RTS-only print  : NO       
EOP file        : eop.250307.p250603                                           
EOP coverage    : DATA-BASED 1962-JAN-20 TO 2025-MAR-07. PREDICTS-> 2025-JUN-02
Units conversion: 1 au= 149597870.700 km, c= 299792.458 km/s, 1 day= 86400.0 s 
Table cut-offs 1: Elevation (-90.0deg=NO ),Airmass (>38.000=NO), Daylight (YES)
Table cut-offs 2: Solar elongation (  0.0,180.0=NO ),Local Hour Angle( 0.0=NO )
Table cut-offs 3: RA/DEC angular rate (     0.0=NO )                           
*******************************************************************************
Initial IAU76/J2000 heliocentric ecliptic osculating elements (au, days, deg.):
  EPOCH=  2458431.5 ! 2018-Nov-09.00 (TDB)         Residual RMS= .2345         
   EC= .08078462401503236  QR= .9719826736009184   TP= 2458484.4320189627      
   OM= 45.37159736002829   W=  55.46172815883946   IN= 1.097814612439332       
  Equivalent ICRF heliocentric cartesian coordinates (au, au/d):
   X= 7.039692724255667E-01  Y= 6.572194580492579E-01  Z= 2.849862807208282E-01
  VX=-1.330010453008250E-02 VY= 1.042346427712734E-02 VZ= 4.885657766154543E-03
Asteroid physical parameters (km, seconds, rotational period in hours):        
   GM= n.a.                RAD= n.a.               ROTPER= n.a.                
   H= 27.25                G= .150                 B-V= n.a.                   
                           ALBEDO= n.a.            STYP= n.a.                  
*******************************************************************************
 Date__(UT)__HR:MN     R.A._________(ICRF)_________DEC
******************************************************
$$SOE
 2018-Dec-06 16:10 Nm  18 32 35.281131 +30 24 32.88386
 2018-Dec-06 16:11 Nm  18 32 34.598838 +30 24 34.89950
 2018-Dec-06 16:12 Nm  18 32 33.915482 +30 24 36.91824
 2018-Dec-06 16:13 Nm  18 32 33.231061 +30 24 38.94004
 2018-Dec-06 16:14 Nm  18 32 32.545573 +30 24 40.96487
 2018-Dec-06 16:15 Nm  18 32 31.859016 +30 24 42.99271
 2018-Dec-06 16:16 Nm  18 32 31.171387 +30 24 45.02352
 2018-Dec-06 16:17 Nm  18 32 30.482684 +30 24 47.05727
 2018-Dec-06 16:18 Nm  18 32 29.792906 +30 24 49.09393
 2018-Dec-06 16:19 Nm  18 32 29.102049 +30 24 51.13346
 2018-Dec-06 16:20 Cm  18 32 28.410112 +30 24 53.17584
 2018-Dec-06 16:21 Cm  18 32 27.717093 +30 24 55.22103
 2018-Dec-06 16:22 Cm  18 32 27.022989 +30 24 57.26901
 2018-Dec-06 16:23 Cm  18 32 26.327798 +30 24 59.31974
 2018-Dec-06 16:24 Cm  18 32 25.631519 +30 25 01.37318
 2018-Dec-06 16:25 Cm  18 32 24.934149 +30 25 03.42931
 2018-Dec-06 16:26 Cm  18 32 24.235686 +30 25 05.48810
 2018-Dec-06 16:27 Cm  18 32 23.536128 +30 25 07.54951
 2018-Dec-06 16:28 Cm  18 32 22.835474 +30 25 09.61351
 2018-Dec-06 16:29 Cm  18 32 22.133721 +30 25 11.68007
 2018-Dec-06 16:30 Cm  18 32 21.430867 +30 25 13.74916
 2018-Dec-06 16:31 Cm  18 32 20.726911 +30 25 15.82074
 2018-Dec-06 16:32 Cm  18 32 20.021850 +30 25 17.89478
 2018-Dec-06 16:33 Cm  18 32 19.315683 +30 25 19.97125
